start=new Date('2022-09-10T00:00:00.000Z').valueOf();
sats=[{"INCLINATION":"53.2172","LAUNCH_DATE":"2022-01-06","EPHEMERIS_TYPE":"0","SITE":"AFETR","REF_FRAME":"TEME","OBJECT_ID":"2022-001H","EPOCH":"2022-09-09T19:50:44.535840","PERIAPSIS":"538.549","CLASSIFICATION_TYPE":"U","MEAN_MOTION_DDOT":"0.0000000000000","ECCENTRICITY":"0.00017650","COUNTRY_CODE":"US","GP_ID":"212167547","MEAN_ANOMALY":"297.7187","CENTER_NAME":"EARTH","FILE":"3565505","APOAPSIS":"540.991","BSTAR":"-0.00004879300000","ELEMENT_SET_NO":"999","OBJECT_TYPE":"PAYLOAD","OBJECT_NAME":"STARLINK-3348","MEAN_MOTION":"15.08831866","DECAY_DATE":null,"MEAN_ELEMENT_THEORY":"SGP4","ARG_OF_PERICENTER":"62.3984","RA_OF_ASC_NODE":"131.1981","RCS_SIZE":"LARGE","TIME_SYSTEM":"UTC","TLE_LINE1":"1 50810U 22001H   22252.82690435 -.00001064  00000-0 -48793-4 0  9997","PERIOD":"95.438","TLE_LINE2":"2 50810  53.2172 131.1981 0001765  62.3984 297.7187 15.08831866 37783","REV_AT_EPOCH":"3778","SEMIMAJOR_AXIS":"6917.905","MEAN_MOTION_DOT":"-0.00001064","NORAD_CAT_ID":"50810"},{"TIME_SYSTEM":"UTC","ARG_OF_PERICENTER":"58.9106","RA_OF_ASC_NODE":"131.2276","RCS_SIZE":"LARGE","DECAY_DATE":null,"MEAN_ELEMENT_THEORY":"SGP4","MEAN_MOTION":"15.08831657","MEAN_MOTION_DOT":"-0.00001185","NORAD_CAT_ID":"50811","REV_AT_EPOCH":"3778","SEMIMAJOR_AXIS":"6917.906","TLE_LINE1":"1 50811U 22001J   22252.81954647 -.00001185  00000-0 -56375-4 0  9994","TLE_LINE2":"2 50811  53.2171 131.2276 0001391  58.9106 301.2023 15.08831657 37781","PERIOD":"95.438","APOAPSIS":"540.733","OBJECT_NAME":"STARLINK-3347","OBJECT_TYPE":"PAYLOAD","BSTAR":"-0.00005637500000","ELEMENT_SET_NO":"999","GP_ID":"212167797","ECCENTRICITY":"0.00013910","COUNTRY_CODE":"US","MEAN_MOTION_DDOT":"0.0000000000000","CENTER_NAME":"EARTH","FILE":"3565505","MEAN_ANOMALY":"301.2023","OBJECT_ID":"2022-001J","REF_FRAME":"TEME","SITE":"AFETR","LAUNCH_DATE":"2022-01-06","EPHEMERIS_TYPE":"0","INCLINATION":"53.2171","CLASSIFICATION_TYPE":"U","PERIAPSIS":"538.809","EPOCH":"2022-09-09T19:40:08.815008"},{"SITE":"AFETR","REF_FRAME":"TEME","LAUNCH_DATE":"2022-01-06","INCLINATION":"53.2166","EPHEMERIS_TYPE":"0","OBJECT_ID":"2022-001K","EPOCH":"2022-09-09T17:13:08.056704","CLASSIFICATION_TYPE":"U","PERIAPSIS":"538.330","COUNTRY_CODE":"US","ECCENTRICITY":"0.00020840","MEAN_MOTION_DDOT":"0.0000000000000","GP_ID":"212168548","MEAN_ANOMALY":"304.7163","CENTER_NAME":"EARTH","FILE":"3565505","APOAPSIS":"541.213","BSTAR":"0.00040443000000","ELEMENT_SET_NO":"999","OBJECT_NAME":"STARLINK-3338","OBJECT_TYPE":"PAYLOAD","MEAN_ELEMENT_THEORY":"SGP4","DECAY_DATE":null,"MEAN_MOTION":"15.08831415","TIME_SYSTEM":"UTC","RA_OF_ASC_NODE":"131.6647","RCS_SIZE":"LARGE","ARG_OF_PERICENTER":"55.4026","PERIOD":"95.438","TLE_LINE2":"2 50812  53.2166 131.6647 0002084  55.4026 304.7163 15.08831415 37768","TLE_LINE1":"1 50812U 22001K   22252.71745436  .00006153  00000-0  40443-3 0  9994","NORAD_CAT_ID":"50812","MEAN_MOTION_DOT":"0.00006153","REV_AT_EPOCH":"3776","SEMIMAJOR_AXIS":"6917.907"},{"RA_OF_ASC_NODE":"131.2406","RCS_SIZE":"LARGE","ARG_OF_PERICENTER":"52.0108","TIME_SYSTEM":"UTC","MEAN_MOTION":"15.08838329","DECAY_DATE":null,"MEAN_ELEMENT_THEORY":"SGP4","REV_AT_EPOCH":"3778","SEMIMAJOR_AXIS":"6917.885","NORAD_CAT_ID":"50813","MEAN_MOTION_DOT":"-0.00000228","TLE_LINE2":"2 50813  53.2171 131.2406 0001668  52.0108 308.1035 15.08838329 37784","PERIOD":"95.438","TLE_LINE1":"1 50813U 22001L   22252.81680731 -.00000228  00000-0  37707-5 0  9991","APOAPSIS":"540.904","OBJECT_TYPE":"PAYLOAD","OBJECT_NAME":"STARLINK-3349","BSTAR":"0.00000377070000","ELEMENT_SET_NO":"999","GP_ID":"212169296","MEAN_MOTION_DDOT":"0.0000000000000","COUNTRY_CODE":"US","ECCENTRICITY":"0.00016680","CENTER_NAME":"EARTH","FILE":"3565505","MEAN_ANOMALY":"308.1035","OBJECT_ID":"2022-001L","LAUNCH_DATE":"2022-01-06","INCLINATION":"53.2171","EPHEMERIS_TYPE":"0","SITE":"AFETR","REF_FRAME":"TEME","PERIAPSIS":"538.597","CLASSIFICATION_TYPE":"U","EPOCH":"2022-09-09T19:36:12.151584"},{"TLE_LINE2":"2 50814  53.2186 141.0230 0001953  62.0147 298.1042 15.08853331 37658","PERIOD":"95.437","TLE_LINE1":"1 50814U 22001M   22252.86277182  .00000802  00000-0  68441-4 0  9994","SEMIMAJOR_AXIS":"6917.840","REV_AT_EPOCH":"3765","NORAD_CAT_ID":"50814","MEAN_MOTION_DOT":"0.00000802","MEAN_MOTION":"15.08853331","MEAN_ELEMENT_THEORY":"SGP4","DECAY_DATE":null,"RA_OF_ASC_NODE":"141.0230","RCS_SIZE":"LARGE","ARG_OF_PERICENTER":"62.0147","TIME_SYSTEM":"UTC","ELEMENT_SET_NO":"999","BSTAR":"0.00006844100000","OBJECT_TYPE":"PAYLOAD","OBJECT_NAME":"STARLINK-3324","APOAPSIS":"541.056","MEAN_ANOMALY":"298.1042","FILE":"3565505","CENTER_NAME":"EARTH","MEAN_MOTION_DDOT":"0.0000000000000","COUNTRY_CODE":"US","ECCENTRICITY":"0.00019530","GP_ID":"212168047","EPOCH":"2022-09-09T20:42:23.485248","PERIAPSIS":"538.354","CLASSIFICATION_TYPE":"U","INCLINATION":"53.2186","LAUNCH_DATE":"2022-01-06","EPHEMERIS_TYPE":"0","REF_FRAME":"TEME","SITE":"AFETR","OBJECT_ID":"2022-001M"},{"MEAN_ANOMALY":"302.7040","CENTER_NAME":"EARTH","FILE":"3565505","ECCENTRICITY":"0.00021250","COUNTRY_CODE":"US","MEAN_MOTION_DDOT":"0.0000000000000","GP_ID":"212168297","EPOCH":"2022-09-09T20:58:17.467392","CLASSIFICATION_TYPE":"U","PERIAPSIS":"538.277","REF_FRAME":"TEME","SITE":"AFETR","INCLINATION":"53.2185","LAUNCH_DATE":"2022-01-06","EPHEMERIS_TYPE":"0","OBJECT_ID":"2022-001N","TLE_LINE1":"1 50815U 22001N   22252.87381328  .00001069  00000-0  85266-4 0  9994","TLE_LINE2":"2 50815  53.2185 140.9682 0002125  57.4157 302.7040 15.08839367 37651","PERIOD":"95.438","MEAN_MOTION_DOT":"0.00001069","NORAD_CAT_ID":"50815","SEMIMAJOR_AXIS":"6917.882","REV_AT_EPOCH":"3765","MEAN_ELEMENT_THEORY":"SGP4","DECAY_DATE":null,"MEAN_MOTION":"15.08839367","TIME_SYSTEM":"UTC","ARG_OF_PERICENTER":"57.4157","RCS_SIZE":"LARGE","RA_OF_ASC_NODE":"140.9682","BSTAR":"0.00008526600000","ELEMENT_SET_NO":"999","OBJECT_NAME":"STARLINK-3234","OBJECT_TYPE":"PAYLOAD","APOAPSIS":"541.217"},{"APOAPSIS":"540.877","ELEMENT_SET_NO":"999","BSTAR":"0.00007090800000","OBJECT_NAME":"STARLINK-3342","OBJECT_TYPE":"PAYLOAD","DECAY_DATE":null,"MEAN_ELEMENT_THEORY":"SGP4","MEAN_MOTION":"15.08846408","TIME_SYSTEM":"UTC","ARG_OF_PERICENTER":"64.7456","RA_OF_ASC_NODE":"141.1141","RCS_SIZE":"LARGE","TLE_LINE1":"1 50816U 22001P   22252.84437378  .00000841  00000-0  70908-4 0  9993","PERIOD":"95.437","TLE_LINE2":"2 50816  53.2178 141.1141 0001664  64.7456 295.3709 15.08846408 37649","MEAN_MOTION_DOT":"0.00000841","NORAD_CAT_ID":"50816","REV_AT_EPOCH":"3764","SEMIMAJOR_AXIS":"6917.861","REF_FRAME":"TEME","SITE":"AFETR","EPHEMERIS_TYPE":"0","LAUNCH_DATE":"2022-01-06","INCLINATION":"53.2178","OBJECT_ID":"2022-001P","EPOCH":"2022-09-09T20:15:53.894592","CLASSIFICATION_TYPE":"U","PERIAPSIS":"538.575","ECCENTRICITY":"0.00016640","COUNTRY_CODE":"US","MEAN_MOTION_DDOT":"0.0000000000000","GP_ID":"212169048","MEAN_ANOMALY":"295.3709","CENTER_NAME":"EARTH","FILE":"3565505"},{"COUNTRY_CODE":"US","ECCENTRICITY":"0.00019190","MEAN_MOTION_DDOT":"0.0000000000000","GP_ID":"212168797","MEAN_ANOMALY":"280.2470","CENTER_NAME":"EARTH","FILE":"3565505","REF_FRAME":"TEME","SITE":"AFETR","LAUNCH_DATE":"2022-01-06","INCLINATION":"53.2173","EPHEMERIS_TYPE":"0","OBJECT_ID":"2022-001Q","EPOCH":"2022-09-09T16:06:50.408928","CLASSIFICATION_TYPE":"U","PERIAPSIS":"538.360","DECAY_DATE":null,"MEAN_ELEMENT_THEORY":"SGP4","MEAN_MOTION":"15.08858836","TIME_SYSTEM":"UTC","RA_OF_ASC_NODE":"141.8805","RCS_SIZE":"LARGE","ARG_OF_PERICENTER":"79.8739","PERIOD":"95.436","TLE_LINE2":"2 50817  53.2173 141.8805 0001919  79.8739 280.2470 15.08858836 37627","TLE_LINE1":"1 50817U 22001Q   22252.67141677 -.00001173  00000-0 -55557-4 0  9993","NORAD_CAT_ID":"50817","MEAN_MOTION_DOT":"-0.00001173","REV_AT_EPOCH":"3762","SEMIMAJOR_AXIS":"6917.823","APOAPSIS":"541.015","ELEMENT_SET_NO":"999","BSTAR":"-0.00005555700000","OBJECT_NAME":"STARLINK-3341","OBJECT_TYPE":"PAYLOAD"},{"FILE":"3565505","CENTER_NAME":"EARTH","MEAN_ANOMALY":"290.7786","GP_ID":"212167548","ECCENTRICITY":"0.00015310","COUNTRY_CODE":"US","MEAN_MOTION_DDOT":"0.0000000000000","CLASSIFICATION_TYPE":"U","PERIAPSIS":"538.690","EPOCH":"2022-09-09T17:15:43.332192","OBJECT_ID":"2022-001R","REF_FRAME":"TEME","SITE":"AFETR","EPHEMERIS_TYPE":"0","LAUNCH_DATE":"2022-01-06","INCLINATION":"53.2159","MEAN_MOTION_DOT":"-0.00000292","NORAD_CAT_ID":"50818","SEMIMAJOR_AXIS":"6917.884","REV_AT_EPOCH":"3762","TLE_LINE1":"1 50818U 22001R   22252.71925153 -.00000292  00000-0 -23715-6 0  9992","TLE_LINE2":"2 50818  53.2159 141.6558 0001531  69.3370 290.7786 15.08838860 37621","PERIOD":"95.438","TIME_SYSTEM":"UTC","ARG_OF_PERICENTER":"69.3370","RCS_SIZE":"LARGE","RA_OF_ASC_NODE":"141.6558","MEAN_ELEMENT_THEORY":"SGP4","DECAY_DATE":null,"MEAN_MOTION":"15.08838860","OBJECT_NAME":"STARLINK-3336","OBJECT_TYPE":"PAYLOAD","ELEMENT_SET_NO":"999","BSTAR":"-0.00000023715000","APOAPSIS":"540.808"},{"MEAN_MOTION_DDOT":"0.0000000000000","COUNTRY_CODE":"US","ECCENTRICITY":"0.00018340","GP_ID":"212167798","MEAN_ANOMALY":"308.4887","FILE":"3565505","CENTER_NAME":"EARTH","EPHEMERIS_TYPE":"0","LAUNCH_DATE":"2022-01-06","INCLINATION":"53.2189","REF_FRAME":"TEME","SITE":"AFETR","OBJECT_ID":"2022-001S","EPOCH":"2022-09-09T17:26:19.582656","PERIAPSIS":"538.460","CLASSIFICATION_TYPE":"U","MEAN_MOTION":"15.08845393","DECAY_DATE":null,"MEAN_ELEMENT_THEORY":"SGP4","RCS_SIZE":"LARGE","RA_OF_ASC_NODE":"141.6334","ARG_OF_PERICENTER":"51.6270","TIME_SYSTEM":"UTC","TLE_LINE2":"2 50819  53.2189 141.6334 0001834  51.6270 308.4887 15.08845393 37635","PERIOD":"95.437","TLE_LINE1":"1 50819U 22001S   22252.72661554  .00000710  00000-0  62721-4 0  9997","REV_AT_EPOCH":"3763","SEMIMAJOR_AXIS":"6917.864","NORAD_CAT_ID":"50819","MEAN_MOTION_DOT":"0.00000710","APOAPSIS":"540.998","BSTAR":"0.00006272100000","ELEMENT_SET_NO":"999","OBJECT_TYPE":"PAYLOAD","OBJECT_NAME":"STARLINK-3327"}];
